#dP2022 11 22 18  0  0.00000000      96 __u+U ITR00 EXT  IAC
## 2237 237600.00000000   900.00000000 59905 0.7500000000000
+  118   C06C07C08C09C10C11C12C13C14C16C19C20C21C22C23C24C25
+        C26C27C28C29C30C32C33C34C35C36C37C38C39C40C41C42C43
+        C44C45C46E01E02E03E04E05E07E08E09E10E11E12E13E14E15
+        E18E19E21E24E25E26E27E30E31E33E34E36G01G02G03G04G05
+        G06G07G08G09G10G11G12G13G14G15G16G17G18G19G20G21G22
+        G23G24G25G26G27G29G30G31G32J02J03J04R01R02R03R04R05
+        R07R08R09R11R12R13R14R15R17R18R19R20R21R22R24R25  0
++        10 11  8 11  9  8  7  8 10  8  9  9  9  7 10  0  8
++         8  9  7  8  8  8  6 10  6  9  9 10 10  9  9  8  7
++         7  8 10  6  8  6 10  6  8  8  7 11  9  7  7  7  7
++         9  8  7  8  7  9  6  8  6  9  6  9  7  8  7  7  7
++         7  8  7  8  7  8  9  6  7  8  7  7  7  7  7  8  7
++         9  8  5  7  7  8  6  8  7  8 10 10  8  9  9  9  8
++         9  7 10  8  8  7  8  7  7  6  9  8  9  9  9  9  0
%c M  cc GPS ccc cccc cccc cccc cccc ccccc ccccc ccccc ccccc
%c cc cc ccc ccc cccc cccc cccc cccc ccccc ccccc ccccc ccccc
%f  0.0000000  0.000000000  0.00000000000  0.000000000000000
%f  0.0000000  0.000000000  0.00000000000  0.000000000000000
%i    0    0    0    0      0      0      0      0         0
%i    0    0    0    0      0      0      0      0         0
/* IAC                                ULTRA-RAPID PREDICTION
/* S/V CLOCKS ARE ALIGNED TO GNSS TIME                      
/* G:C1WC2W R:C1PC2P E:C1XC5X C:C2IC6I J:C1CC2S             
/* PCV:IGS14_2233 OL/AL:FES2004  NONE     YN ORB:CoN CLK:CoN
*  2022 11 23 16 30  0.00000000
PC06   -505.051628  29772.563774 -29770.883394     -5.487425
PC07 -16147.773752  29617.021778  25267.284324    173.266796
PC08 -10986.572592  40691.019787   3204.355136    515.486863
PC09   6967.213361  33174.178856 -24352.785298   -799.876269
PC10  -7444.020559  29621.460768  29199.621847     63.463063
PC11   6790.537359  20377.419790  17906.478778   -275.675653
PC12 -10928.469751  10983.220789  23253.252506    314.358591
PC13  -5278.999891  41705.731977  -4694.752535    140.685482
PC14  -2617.408687  17403.016441 -21634.257764    202.120344
PC16  -5239.151071  26366.969743 -32239.009429    112.656813
PC19  -8008.926373 -13654.991623  22998.196184   -910.810107
PC20  11181.628195 -18271.164010  17901.281723    828.454299
PC21 -25061.028757  12153.453112  -1603.207625   -885.249890
PC22 -23485.599507   -957.118262  15021.592899   -777.806262
PC23  14944.084618   8502.198595  21983.837073   -875.344543
PC24      0.000000      0.000000      0.000000   -767.818185
PC25   6632.105162  24192.375699  12243.511827     29.018533
PC26 -14962.413009  13960.808202 -19004.489507    -40.057145
PC27  18193.367285  -4263.043518 -20738.522495     55.760896
PC28  24215.841298  10989.879903  -8463.780161     39.297026
PC29 -16593.616270 -20086.878620  -9997.083849     44.406761
PC30   1845.082685 -17275.924334 -21843.751134      1.032135
PC32  24999.386782 -12310.712859   1524.909547   -707.393878
PC33   8001.393779  13674.701056 -22974.825634   -906.147211
PC34   -695.444965  17834.098244  21440.488008     45.737698
PC35 -24564.181664 -11285.784787   6986.945702    101.513068
PC36  -5659.564439 -24669.267721 -11718.427947   -819.151748
PC37  15595.551790 -12159.765428  19688.735820   -909.212970
PC38 -14591.103342  38255.402321  10500.382800     40.143413
PC39  -8406.584495  23769.839127 -33762.586996     -0.938161
PC40 -23847.016161  23642.147748  25379.040462     -8.727785
PC41  23211.270020   1295.298845 -15388.611954   -306.441551
PC42 -12345.096073  18269.567862 -17060.033435   -718.804148
PC43  15900.146569  20305.972035  10629.422670     26.493346
PC44 -18273.792318   4808.081759  20536.975912    123.096310
PC45 -14939.756857  -8028.291817 -22157.818357    -26.053932
PC46   6372.404137 -26761.495110   4538.047772    -14.957415
PE01  -6041.476822  24773.931479  15045.139115   -571.171678
PE02   5808.993643 -24689.558664 -15239.992142      4.362915
PE03  -3612.435066 -17303.806348  23730.418060   -622.884633
PE04  22958.578348  12633.806911 -13762.742682  -1164.862959
PE05  18307.136707 -11907.041271  19973.578534   -121.822643
PE07 -29228.628745   -333.981711  -4654.164459     -1.632543
PE08 -22991.496062 -12495.162566  13822.170655   -637.170501
PE09  29263.027817    444.633864   4457.909145   -739.463728
PE10  18728.614244  14114.826147 -18070.640167   -492.884068
PE11  17752.036033   2789.456406 -23525.024299   1190.899652
PE12  16655.129591  22212.912907 -10250.748666   -292.859468
PE13 -17910.659175  -3795.307314  23266.030956    430.540638
PE14 -23640.534124  -2892.822030   3957.117667     64.915653
PE15 -16583.239100 -22381.705724  10017.771687    705.523647
PE18  28837.207626  -3881.575346 -13927.006678   -709.285042
PE19    466.369077  17045.002406 -24197.084557  -3921.594617
PE21 -18737.041634  22869.443472  -1557.863418   -496.331638
PE24  21612.528605  -6698.412483  19059.179873   -963.474636
PE25  18884.657576 -22708.915353   1872.495418   -593.357349
PE26  -8329.973283  17627.475714  22283.139545  -1878.901168
PE27 -21773.893961   7766.344472 -18491.797109   -446.569708
PE30 -11395.258337 -12515.563663 -24288.269257  -1022.012300
PE31  11955.060950  11787.865988  24388.379744   -508.911831
PE33   5462.715964  27642.001808   9077.262292   -455.591231
PE34  -5636.040043 -27651.559541  -8907.906589    -16.092728
PE36   8727.461558 -16816.578026 -22734.916018   -465.140740
PG01 -15062.617545   -533.921622  21601.430228    247.535590
PG02  14308.384459  -4025.430649 -21373.604220   -636.492274
PG03 -20474.859972   8222.783031  14586.529785   -374.003643
PG04 -25119.991070    255.976211  -8786.208516    -81.270351
PG05  15461.571467   4455.206244 -21322.079674   -105.415363
PG06   5649.845870  25628.501466   3863.588818    525.071739
PG07  -9121.305570  15536.130086 -18926.108951    283.761676
PG08 -25938.309002  -6232.006138  -2208.400045    -95.246938
PG09 -17887.180547   9261.996225 -17416.703682   -264.291759
PG10   8552.043285 -21986.872098  12038.120632    -13.136312
PG11  12077.159357  22169.205355  -8308.432630    -44.494323
PG12  20911.512423  -6190.476761  14818.529025   -307.698715
PG13  21576.228476  13499.714288  -8099.475944    429.799706
PG14 -11083.607387  21936.208347   9927.782406    -78.923726
PG15  26384.582204   3646.948539  -2492.965950     -9.965474
PG16 -11524.266416 -10004.511437 -22037.924898   -526.812558
PG17  -4644.463356  14359.723217  22300.208548    680.367427
PG18   7617.067640 -17558.074936 -18353.301027    -32.808024
PG19   8146.662106  16264.406679  19214.894977    241.251852
PG20   6713.761724  16284.775594 -19924.009589    468.139176
PG21 -17863.221519  -9070.046922  18408.973501    155.420787
PG22 -10881.247466 -16475.206503  18271.895187    370.512903
PG23  16210.987773 -20892.987897   1432.186089     -0.810907
PG24  17412.838871   4218.305735  19393.264847     46.571515
PG25  19955.307275 -15896.574164   6539.597285    395.440166
PG26  -2889.068500 -18629.220780 -18675.618342    236.628379
PG27 -19905.967494 -12856.049327 -12618.496540    171.115076
PG29  19946.475270  -5922.431291 -16595.617266   -569.244445
PG30   -890.637695  23969.965341 -11034.422731   -536.391700
PG31  -6348.573718 -25438.280605   1992.567445   -201.108671
PG32    361.628587 -15490.601173  21735.924032   -305.951447
PJ02 -27375.215394  31799.048342    711.549257     -0.180980
PJ03 -25430.749653  23120.625378  29557.402076     -5.207999
PJ04 -33995.595743  23871.464343  -2154.728035    113.562806
PR01  -9741.065401  -8391.950987  22024.434380     18.376425
PR02 -23664.471693    653.203378   9628.873736    -23.361171
PR03 -22586.105181   9015.626966  -7766.524643     67.819449
PR04  -9097.957611  11920.683940 -20618.343699    166.000825
PR05   9331.518026   8507.872834 -22152.598493    103.389044
PR07  22110.734072  -9296.131203   8631.624615     44.816269
PR08   8783.051087 -12084.045860  20715.712376    -68.225013
PR09  11391.301953   1133.717023  22815.210774     89.190401
PR11   6952.210282 -24548.646874   -204.749245     19.114107
PR12  -3135.493778 -18461.158038 -17286.580707     23.105828
PR13 -10628.127017  -2958.261590 -23014.272988    -29.214662
PR14 -12416.401891  16329.618952 -15141.176955     24.070847
PR15  -6697.135832  24579.828856   1313.467953     92.755593
PR17 -10917.369641   3459.903320  22801.686399    580.714559
PR18   2223.353989  15769.477042  19930.805567     53.425221
PR19  12990.601551  20498.756233   7877.714057   -212.021165
PR20  18196.407682  12746.364525 -12488.050411    -82.687143
PR21   9792.549692  -4690.567171 -23077.775699   -352.018241
PR22  -2046.785452 -16537.736846 -19285.844338     21.445935
PR24 -18692.393162 -11534.291459  12975.735089    128.314870
PR25  11621.711991  -2665.961988 -22543.771256     47.073320
EOF
